ONEWEB-0452             
1 51644C 22012Y   22342.41161293 -.00025379  00000-0 -65492-1 0  3424
2 51644  87.9119 261.5189 0001688 108.1591   3.6431 13.17626224    19
ONEWEB-0456             
1 51646C 22012AA  22342.05781664 -.00001777  00000-0 -50971-2 0  3429
2 51646  87.8771 292.0928 0002202  80.3801  43.0408 13.10368563    16
ONEWEB-0457             
1 51647C 22012AB  22342.03590693 -.00002396  00000-0 -68732-2 0  3420
2 51647  87.8876 292.0524 0001264  62.5301  60.5230 13.10379640    14
ONEWEB-0458             
1 51648C 22012AC  22342.05640462 -.00002769  00000-0 -79421-2 0  3424
2 51648  87.8722 292.0682 0002002  94.8325  29.3635 13.10368042    11
ONEWEB-0461             
1 51649C 22012AD  22342.45293238 -.00002660  00000-0 -56109-2 0  3422
2 51649  87.9618 261.3764 0002881  78.0633 340.6850 13.31123331    19
ONEWEB-0463             
1 51650C 22012AE  22342.41024720 -.00026521  00000-0 -68355-1 0  3425
2 51650  87.9107 261.5475 0001125 164.0046 286.2555 13.17712917    14
ONEWEB-0464             
1 51651C 22012AF  22342.43734211 -.00001021  00000-0 -29279-2 0  3422
2 51651  87.8764 291.9900 0002346  92.8698  41.9638 13.10370171    13
ONEWEB-0468             
1 51652C 22012AG  22342.43731896 -.00001385  00000-0 -39737-2 0  3422
2 51652  87.8767 292.0086 0001820  83.7899  21.6112 13.10369509    17
ONEWEB-0473             
1 51653C 22012AH  22342.42934442 -.00000410  00000-0 -11757-2 0  3424
2 51653  87.8728 291.9981 0002067  94.0230  39.7652 13.10372348    19
ONEWEB-0474             
1 51654C 22012AJ  22342.42099951 -.00000157  00000-0 -45136-3 0  3429
2 51654  87.8770 291.9900 0002302  91.3819  39.8356 13.10376740    15
ONEWEB-0475             
1 51655C 22012AK  22342.27586063 -.01350605  00000-0 -32514+1 0  3428
2 51655  87.9293 261.5517 0002409 102.3971  18.0662 13.23658102    12
ONEWEB-0490             
1 54113C 22138A   22342.38698331 -.01467532  00000-0 -59783-0 0  3428
2 54113  87.5529 202.3070 0014586 120.5241 200.6151 14.29018145    16
ONEWEB-0492             
1 54114C 22138B   22342.32618470 -.01372986  00000-0 -54026-0 0  3422
2 54114  87.5577 202.3259 0014060 128.1817 293.9536 14.30701796    14
ONEWEB-0495             
1 54115C 22138C   22342.35189072 -.01426678  00000-0 -63983-0 0  3427
2 54115  87.5137 202.3156 0015346 142.7479 194.0562 14.23992905    13
ONEWEB-0497             
1 54116C 22138D   22342.32132359 -.01340616  00000-0 -57538-0 0  3427
2 54116  87.5289 202.3209 0015869 129.1206 296.4525 14.26187174    11
ONEWEB-0499             
1 54117C 22138E   22342.34669396 -.01444577  00000-0 -59757-0 0  3422
2 54117  87.5449 202.3217 0016153 125.7071 227.3251 14.28192984    14
ONEWEB-0500             
1 54118C 22138F   22342.35639303 -.01506018  00000-0 -59766-0 0  3428
2 54118  87.5669 202.3112 0012633 117.8461 229.5372 14.30413956    13
ONEWEB-0501             
1 54119C 22138G   22342.32030507 -.01426680  00000-0 -61149-0 0  3421
2 54119  87.5360 202.3203 0017041 133.5939 220.6485 14.26333845    16
ONEWEB-0502             
1 54120C 22138H   22342.16507360 -.01435681  00000-0 -56984-0 0  3423
2 54120  87.5618 202.3645 0013502 117.8029 220.8107 14.30327638    18
ONEWEB-0503             
1 54121C 22138J   22342.34980738 -.01439168  00000-0 -60185-0 0  3420
2 54121  87.5414 202.3126 0016551 124.9193 229.8640 14.27622807    18
ONEWEB-0504             
1 54122C 22138K   22342.36093007 -.01483480  00000-0 -59043-0 0  3424
2 54122  87.5570 202.3117 0013311 119.1963 201.3094 14.30237330    19
ONEWEB-0505             
1 54123C 22138L   22342.33487683 -.01309156  00000-0 -56785-0 0  3426
2 54123  87.5310 202.3186 0016128 141.1105 205.4719 14.25603936    12
ONEWEB-0506             
1 54124C 22138M   22342.26788610 -.01455143  00000-0 -62152-0 0  3426
2 54124  87.5403 202.3533 0017202 141.9866 280.7521 14.26541923    13
ONEWEB-0507             
1 54125C 22138N   22342.32965692 -.01428809  00000-0 -54400-0 0  3427
2 54125  87.5780 202.3137 0013075 121.3471 213.2794 14.32444750    10
ONEWEB-0508             
1 54126C 22138P   22342.38417082 -.01449369  00000-0 -58413-0 0  3421
2 54126  87.5593 202.3112 0014644 122.7477 212.0205 14.29550365    10
ONEWEB-0509             
1 54127C 22138Q   22342.47136990 -.01418117  00000-0 -61825-0 0  3426
2 54127  87.5328 202.2729 0016606 130.9614 296.0747 14.25445922    15
ONEWEB-0510             
1 54128C 22138R   22342.41579118  .00004678  00000-0  80349-3 0  3429
2 54128  86.9018 200.6245 0012059 130.3821 295.6621 14.68769964    10
ONEWEB-0511             
1 54129C 22138S   22342.23348794 -.01352660  00000-0 -53271-0 0  3425
2 54129  87.5651 202.3400 0013798 118.1181 222.2651 14.30640610    11
ONEWEB-0512             
1 54130C 22138T   22342.32726110 -.01430482  00000-0 -61781-0 0  3423
2 54130  87.5317 202.3123 0016356 131.0820 293.2909 14.25948594    11
ONEWEB-0513             
1 54131C 22138U   22342.28803655 -.01491920  00000-0 -13609+1 0  3429
2 54131  87.6128 203.1872 0013316 130.0495  34.5178 13.84792869    13
ONEWEB-0514             
1 54132C 22138V   22342.23555970 -.01468615  00000-0 -58635-0 0  3422
2 54132  87.5580 202.3349 0013849 122.2064 235.3917 14.30057748    15
ONEWEB-0515             
1 54133C 22138W   22342.42241155  .00049702  00000-0  85374-2 0  3422
2 54133  86.9044 200.5813 0012995 123.8822 302.7048 14.68715487    16
ONEWEB-0516             
1 54134C 22138X   22342.31022405 -.01480476  00000-0 -59407-0 0  3422
2 54134  87.5580 202.3266 0013246 119.2272 222.7828 14.29816603    15
ONEWEB-0517             
1 54135C 22138Y   22342.34116155 -.01429759  00000-0 -58338-0 0  3421
2 54135  87.5524 202.3127 0015426 125.2167 268.3813 14.28890211    18
ONEWEB-0518             
1 54136C 22138Z   22342.36162451 -.01438366  00000-0 -60145-0 0  3427
2 54136  87.5367 202.3169 0017539 126.5130 218.5062 14.27618798    11
ONEWEB-0519             
1 54137C 22138AA  22342.37619627 -.01463293  00000-0 -56896-0 0  3426
2 54137  87.5671 202.3094 0013178 119.2154  24.3789 14.31409793    14
ONEWEB-0520             
1 54138C 22138AB  22342.32829118 -.01493061  00000-0 -61090-0 0  3428
2 54138  87.5511 202.3307 0015695 122.7239 219.7340 14.28809976    10
ONEWEB-0521             
1 54139C 22138AC  22342.34390461 -.01419551  00000-0 -61621-0 0  3427
2 54139  87.5267 202.3111 0016495 142.8182 197.4739 14.25672834    13
ONEWEB-0522             
1 54140C 22138AD  22342.10676339 -.01434614  00000-0 -60411-0 0  3427
2 54140  87.5406 202.3967 0017545 135.0112 224.9719 14.27251910    17
ONEWEB-0523             
1 54141C 22138AE  22342.41616155  .00004793  00000-0  82222-3 0  3427
2 54141  86.9023 200.5873 0012098 130.0107 295.5151 14.68825571    18
ONEWEB-0524             
1 54142C 22138AF  22342.41684442  .00004784  00000-0  82047-3 0  3427
2 54142  86.9041 200.5851 0011786 131.1198 293.0232 14.68838455    18
ONEWEB-0525             
1 54143C 22138AG  22342.34562914 -.01423721  00000-0 -58653-0 0  3421
2 54143  87.5437 202.3142 0014330 119.2890 238.1458 14.28399067    19
ONEWEB-0526             
1 54144C 22138AH  22342.32344164 -.01420166  00000-0 -61241-0 0  3422
2 54144  87.5306 202.3135 0017095 134.3966 226.2083 14.26011133    15
ONEWEB-0529             
1 54145C 22138AJ  22342.42586063 -.01417673  00000-0 -59021-0 0  3422
2 54145  87.5505 202.2960 0016195 131.0296 209.7703 14.27835818    12
ONEWEB-0531             
1 54146C 22138AK  22342.42067544  .00005121  00000-0  87859-3 0  3422
2 54146  86.9030 200.5888 0012254 129.5148 297.1454 14.68821268    12
ONEWEB-0535             
1 54147C 22138AL  22342.37343007 -.01398518  00000-0 -53816-0 0  3429
2 54147  87.5688 202.3072 0012911 117.8754  38.3838 14.31874849    11
ONEWEB-0536             
1 54148C 22138AM  22342.28660137  .00000205  00000-0  35296-4 0  3422
2 54148  86.9004 200.6750 0011946 125.8222 299.2099 14.68748301    17
